{
  "norad_id": 62924,
  "name": "STARLINK-32871",
  "history": [
    {
      "epoch": "2026-03-28T18:59:44.666016Z",
      "apogee_km": 483.2664314535359,
      "perigee_km": 482.6739062384331,
      "latitude_deg": 8.828973082193925e-06,
      "longitude_deg": -90.15236221194577,
      "height_km": 482.82405122237344,
      "semi_major_axis_km": 6861.107168845984,
      "eccentricity": 4.318e-05,
      "inclination_deg": 42.9983,
      "raan_deg": 20.9906,
      "arg_perigee_deg": 254.682,
      "mean_anomaly_deg": 105.3984,
      "mean_motion_rev_day": 15.27606359
    },
    {
      "epoch": "2026-03-29T04:24:40.371840Z",
      "apogee_km": 484.0008162092781,
      "perigee_km": 481.8190032919774,
      "latitude_deg": 4.406193641094307e-05,
      "longitude_deg": 126.01448799547576,
      "height_km": 483.0031677758508,
      "semi_major_axis_km": 6861.0469097506275,
      "eccentricity": 0.000159,
      "inclination_deg": 43.0046,
      "raan_deg": 18.7762,
      "arg_perigee_deg": 253.1621,
      "mean_anomaly_deg": 106.9057,
      "mean_motion_rev_day": 15.27626484
    },
    {
      "epoch": "2026-03-30T03:57:01.147968Z",
      "apogee_km": 483.94509534640656,
      "perigee_km": 482.06239832547635,
      "latitude_deg": 3.832607878521835e-05,
      "longitude_deg": 126.41999861779534,
      "height_km": 482.79690122546646,
      "semi_major_axis_km": 6861.140746835941,
      "eccentricity": 0.0001372,
      "inclination_deg": 43.0021,
      "raan_deg": 13.235,
      "arg_perigee_deg": 269.0109,
      "mean_anomaly_deg": 91.0586,
      "mean_motion_rev_day": 15.27595145
    },
    {
      "epoch": "2026-03-30T11:47:48.519456Z",
      "apogee_km": 483.5031801728801,
      "perigee_km": 482.57568634263225,
      "latitude_deg": -1.2955825112022413e-05,
      "longitude_deg": 6.556819130953477,
      "height_km": 482.8052002695382,
      "semi_major_axis_km": 6861.176433257756,
      "eccentricity": 6.759e-05,
      "inclination_deg": 43.0017,
      "raan_deg": 11.3915,
      "arg_perigee_deg": 271.2963,
      "mean_anomaly_deg": 88.7811,
      "mean_motion_rev_day": 15.27583227
    },
    {
      "epoch": "2026-03-30T19:38:36.220128Z",
      "apogee_km": 483.4459596243487,
      "perigee_km": 482.6666652879203,
      "latitude_deg": -3.472251276066378e-05,
      "longitude_deg": -113.31150423850565,
      "height_km": 482.80296197835435,
      "semi_major_axis_km": 6861.193312456135,
      "eccentricity": 5.679e-05,
      "inclination_deg": 43.0008,
      "raan_deg": 9.5442,
      "arg_perigee_deg": 85.8413,
      "mean_anomaly_deg": 274.2503,
      "mean_motion_rev_day": 15.2757759
    },
    {
      "epoch": "2026-03-31T11:20:11.261184Z",
      "apogee_km": 484.1235336585569,
      "perigee_km": 482.1118137882204,
      "latitude_deg": 4.057927023250917e-05,
      "longitude_deg": 6.957181175015795,
      "height_km": 482.9895669789136,
      "semi_major_axis_km": 6861.254673723388,
      "eccentricity": 0.0001466,
      "inclination_deg": 43.0029,
      "raan_deg": 5.8533,
      "arg_perigee_deg": 264.59,
      "mean_anomaly_deg": 95.4785,
      "mean_motion_rev_day": 15.27557098
    },
    {
      "epoch": "2026-04-01T10:52:31.504224Z",
      "apogee_km": 483.809373396095,
      "perigee_km": 482.13800683198315,
      "latitude_deg": -4.1973562759440515e-05,
      "longitude_deg": 7.365337861621101,
      "height_km": 482.43219365871965,
      "semi_major_axis_km": 6861.110690114038,
      "eccentricity": 0.0001218,
      "inclination_deg": 43.006,
      "raan_deg": 0.3126,
      "arg_perigee_deg": 292.4169,
      "mean_anomaly_deg": 67.6553,
      "mean_motion_rev_day": 15.27605183
    },
    {
      "epoch": "2026-04-02T18:15:39.571488Z",
      "apogee_km": 483.2823312054161,
      "perigee_km": 482.7636275109762,
      "latitude_deg": 4.193228243215273e-05,
      "longitude_deg": -112.09104479554549,
      "height_km": 482.8155274515081,
      "semi_major_axis_km": 6861.159979358195,
      "eccentricity": 3.78e-05,
      "inclination_deg": 43.0008,
      "raan_deg": 352.9287,
      "arg_perigee_deg": 266.3116,
      "mean_anomaly_deg": 93.7693,
      "mean_motion_rev_day": 15.27588722
    }
  ]
}